[{"OBJECT_NAME":"ONEWEB-0387","OBJECT_ID":"2021-090AL","EPOCH":"2026-03-09T16:05:48.490368","MEAN_MOTION":13.20771137,"ECCENTRICITY":0.00015871,"INCLINATION":87.9161,"RA_OF_ASC_NODE":294.3326,"ARG_OF_PERICENTER":72.7354,"MEAN_ANOMALY":287.3953,"EPHEMERIS_TYPE":0,"CLASSIFICATION_TYPE":"U","NORAD_CAT_ID":49313,"ELEMENT_SET_NO":999,"REV_AT_EPOCH":21668,"BSTAR":-0.00067251148,"MEAN_MOTION_DOT":-2.6e-6,"MEAN_MOTION_DDOT":0},{"OBJECT_NAME":"FENGYUN 1C DEB","OBJECT_ID":"1999-025EBT","EPOCH":"2026-02-28T10:05:35.696256","MEAN_MOTION":13.46000024,"ECCENTRICITY":0.03181701,"INCLINATION":100.8155,"RA_OF_ASC_NODE":311.3451,"ARG_OF_PERICENTER":223.1269,"MEAN_ANOMALY":134.4534,"EPHEMERIS_TYPE":0,"CLASSIFICATION_TYPE":"U","NORAD_CAT_ID":36987,"ELEMENT_SET_NO":999,"REV_AT_EPOCH":61922,"BSTAR":0.00044789678,"MEAN_MOTION_DOT":3.11e-6,"MEAN_MOTION_DDOT":0}]
